STARLINK-36119          
1 67619U 26020C   26052.39598347  .00407066  00000+0  23651-2 0  9993
2 67619  42.9982 241.2781 0001867 260.5068  99.5591 15.76552663  3512
STARLINK-36607          
1 67620U 26020D   26052.58335648 -.00145886  00000+0 -90634-3 0  9996
2 67620  42.9994 239.7058 0001498 251.9943 266.8624 15.76416233  4803
STARLINK-36615          
1 67621U 26020E   26052.54502016  .00439526  00000+0  19607-2 0  9993
2 67621  42.9971 239.7895 0002844 239.3000 120.7592 15.82287549  3543
STARLINK-36614          
1 67622U 26020F   26052.51832316  .00308185  00000+0  18244-2 0  9992
2 67622  42.9985 240.4741 0002283 293.2458  66.8171 15.76404542  3530
STARLINK-36600          
1 67623U 26020G   26052.58387192  .00340174  00000+0  19988-2 0  9997
2 67623  42.9983 240.1056 0002386 288.4114  71.6496 15.76483797  3548
STARLINK-36439          
1 67624U 26020H   26052.57292177  .00288750  00000+0  17131-2 0  9994
2 67624  42.9985 240.0151 0001718 268.4980  91.5693 15.76410406  3540
STARLINK-36438          
1 67625U 26020J   26052.57949743  .00408916  00000+0  23987-2 0  9997
2 67625  42.9985 240.0702 0001747 336.0922  23.9867 15.76330005  3541
STARLINK-36436          
1 67626U 26020K   26052.58335648 -.00007615  00000+0 -43851-4 0  9999
2 67626  42.9993 239.6430 0001766 242.9520 300.8079 15.76346170  4805
STARLINK-36502          
1 67627U 26020L   26052.54134681 -.00956059  00000+0 -53383-2 0  9994
2 67627  42.9983 239.7598 0002107 269.8859  90.1771 15.80893404  3544
STARLINK-36532          
1 67628U 26020M   26052.00002315 -.01059876  00000+0 -56007-2 0  9992
2 67628  42.9990 243.0484 0001753 255.9501 269.5962 15.82335971  4706
STARLINK-36367          
1 67629U 26020N   26052.56197515  .00279525  00000+0  16431-2 0  9990
2 67629  42.9981 239.9262 0002654 262.3537  97.7031 15.76645476  3543
STARLINK-36416          
1 67630U 26020P   26051.94370963  .00314457  00000+0  18603-2 0  9990
2 67630  42.9979 243.9029 0001881 266.3830  93.6824 15.76402842  3441
