CCSDS_OMM_VERS = 2.0
CREATION_DATE  = 
ORIGINATOR     = 

OBJECT_NAME    = STARLINK-36119
OBJECT_ID      = 2026-020C
CENTER_NAME    = EARTH
REF_FRAME      = TEME
TIME_SYSTEM    = UTC
MEAN_ELEMENT_THEORY = SGP/SGP4

EPOCH          = 2026-02-21T09:30:12.971808
MEAN_MOTION    = 15.76552663
ECCENTRICITY   = .00018672
INCLINATION    = 42.9982
RA_OF_ASC_NODE = 241.2781
ARG_OF_PERICENTER = 260.5068
MEAN_ANOMALY   = 99.5591

EPHEMERIS_TYPE = 0
CLASSIFICATION_TYPE = U
NORAD_CAT_ID   = 67619
ELEMENT_SET_NO = 999
REV_AT_EPOCH   = 351
BSTAR          = .23650887E-2
MEAN_MOTION_DOT = .407066E-2
MEAN_MOTION_DDOT = 0

CCSDS_OMM_VERS = 2.0
CREATION_DATE  = 
ORIGINATOR     = 

OBJECT_NAME    = STARLINK-36607
OBJECT_ID      = 2026-020D
CENTER_NAME    = EARTH
REF_FRAME      = TEME
TIME_SYSTEM    = UTC
MEAN_ELEMENT_THEORY = SGP/SGP4

EPOCH          = 2026-02-21T14:00:01.999872
MEAN_MOTION    = 15.76416233
ECCENTRICITY   = .0001498
INCLINATION    = 42.9994
RA_OF_ASC_NODE = 239.7058
ARG_OF_PERICENTER = 251.9943
MEAN_ANOMALY   = 266.8624

EPHEMERIS_TYPE = 0
CLASSIFICATION_TYPE = U
NORAD_CAT_ID   = 67620
ELEMENT_SET_NO = 999
REV_AT_EPOCH   = 480
BSTAR          = -.90633563E-3
MEAN_MOTION_DOT = -.145886E-2
MEAN_MOTION_DDOT = 0

CCSDS_OMM_VERS = 2.0
CREATION_DATE  = 
ORIGINATOR     = 

OBJECT_NAME    = STARLINK-36615
OBJECT_ID      = 2026-020E
CENTER_NAME    = EARTH
REF_FRAME      = TEME
TIME_SYSTEM    = UTC
MEAN_ELEMENT_THEORY = SGP/SGP4

EPOCH          = 2026-02-21T13:04:49.741824
MEAN_MOTION    = 15.82287549
ECCENTRICITY   = .00028448
INCLINATION    = 42.9971
RA_OF_ASC_NODE = 239.7895
ARG_OF_PERICENTER = 239.3000
MEAN_ANOMALY   = 120.7592

EPHEMERIS_TYPE = 0
CLASSIFICATION_TYPE = U
NORAD_CAT_ID   = 67621
ELEMENT_SET_NO = 999
REV_AT_EPOCH   = 354
BSTAR          = .19606847E-2
MEAN_MOTION_DOT = .439526E-2
MEAN_MOTION_DDOT = 0

CCSDS_OMM_VERS = 2.0
CREATION_DATE  = 
ORIGINATOR     = 

OBJECT_NAME    = STARLINK-36614
OBJECT_ID      = 2026-020F
CENTER_NAME    = EARTH
REF_FRAME      = TEME
TIME_SYSTEM    = UTC
MEAN_ELEMENT_THEORY = SGP/SGP4

EPOCH          = 2026-02-21T12:26:23.121024
MEAN_MOTION    = 15.76404542
ECCENTRICITY   = .00022838
INCLINATION    = 42.9985
RA_OF_ASC_NODE = 240.4741
ARG_OF_PERICENTER = 293.2458
MEAN_ANOMALY   = 66.8171

EPHEMERIS_TYPE = 0
CLASSIFICATION_TYPE = U
NORAD_CAT_ID   = 67622
ELEMENT_SET_NO = 999
REV_AT_EPOCH   = 353
BSTAR          = .18244239E-2
MEAN_MOTION_DOT = .308185E-2
MEAN_MOTION_DDOT = 0

CCSDS_OMM_VERS = 2.0
CREATION_DATE  = 
ORIGINATOR     = 

OBJECT_NAME    = STARLINK-36600
OBJECT_ID      = 2026-020G
CENTER_NAME    = EARTH
REF_FRAME      = TEME
TIME_SYSTEM    = UTC
MEAN_ELEMENT_THEORY = SGP/SGP4

EPOCH          = 2026-02-21T14:00:46.533888
MEAN_MOTION    = 15.76483797
ECCENTRICITY   = .00023862
INCLINATION    = 42.9983
RA_OF_ASC_NODE = 240.1056
ARG_OF_PERICENTER = 288.4114
MEAN_ANOMALY   = 71.6496

EPHEMERIS_TYPE = 0
CLASSIFICATION_TYPE = U
NORAD_CAT_ID   = 67623
ELEMENT_SET_NO = 999
REV_AT_EPOCH   = 354
BSTAR          = .19988207E-2
MEAN_MOTION_DOT = .340174E-2
MEAN_MOTION_DDOT = 0

CCSDS_OMM_VERS = 2.0
CREATION_DATE  = 
ORIGINATOR     = 

OBJECT_NAME    = STARLINK-36439
OBJECT_ID      = 2026-020H
CENTER_NAME    = EARTH
REF_FRAME      = TEME
TIME_SYSTEM    = UTC
MEAN_ELEMENT_THEORY = SGP/SGP4

EPOCH          = 2026-02-21T13:45:00.440928
MEAN_MOTION    = 15.76410406
ECCENTRICITY   = .00017189
INCLINATION    = 42.9985
RA_OF_ASC_NODE = 240.0151
ARG_OF_PERICENTER = 268.4980
MEAN_ANOMALY   = 91.5693

EPHEMERIS_TYPE = 0
CLASSIFICATION_TYPE = U
NORAD_CAT_ID   = 67624
ELEMENT_SET_NO = 999
REV_AT_EPOCH   = 354
BSTAR          = .17130949E-2
MEAN_MOTION_DOT = .28875E-2
MEAN_MOTION_DDOT = 0

CCSDS_OMM_VERS = 2.0
CREATION_DATE  = 
ORIGINATOR     = 

OBJECT_NAME    = STARLINK-36438
OBJECT_ID      = 2026-020J
CENTER_NAME    = EARTH
REF_FRAME      = TEME
TIME_SYSTEM    = UTC
MEAN_ELEMENT_THEORY = SGP/SGP4

EPOCH          = 2026-02-21T13:54:28.577952
MEAN_MOTION    = 15.76330005
ECCENTRICITY   = .00017474
INCLINATION    = 42.9985
RA_OF_ASC_NODE = 240.0702
ARG_OF_PERICENTER = 336.0922
MEAN_ANOMALY   = 23.9867

EPHEMERIS_TYPE = 0
CLASSIFICATION_TYPE = U
NORAD_CAT_ID   = 67625
ELEMENT_SET_NO = 999
REV_AT_EPOCH   = 354
BSTAR          = .2398721E-2
MEAN_MOTION_DOT = .408916E-2
MEAN_MOTION_DDOT = 0

CCSDS_OMM_VERS = 2.0
CREATION_DATE  = 
ORIGINATOR     = 

OBJECT_NAME    = STARLINK-36436
OBJECT_ID      = 2026-020K
CENTER_NAME    = EARTH
REF_FRAME      = TEME
TIME_SYSTEM    = UTC
MEAN_ELEMENT_THEORY = SGP/SGP4

EPOCH          = 2026-02-21T14:00:01.999872
MEAN_MOTION    = 15.76346170
ECCENTRICITY   = .00017667
INCLINATION    = 42.9993
RA_OF_ASC_NODE = 239.6430
ARG_OF_PERICENTER = 242.9520
MEAN_ANOMALY   = 300.8079

EPHEMERIS_TYPE = 0
CLASSIFICATION_TYPE = U
NORAD_CAT_ID   = 67626
ELEMENT_SET_NO = 999
REV_AT_EPOCH   = 480
BSTAR          = -.43851367E-4
MEAN_MOTION_DOT = -.7615E-4
MEAN_MOTION_DDOT = 0

CCSDS_OMM_VERS = 2.0
CREATION_DATE  = 
ORIGINATOR     = 

OBJECT_NAME    = STARLINK-36502
OBJECT_ID      = 2026-020L
CENTER_NAME    = EARTH
REF_FRAME      = TEME
TIME_SYSTEM    = UTC
MEAN_ELEMENT_THEORY = SGP/SGP4

EPOCH          = 2026-02-21T12:59:32.364384
MEAN_MOTION    = 15.80893404
ECCENTRICITY   = .0002107
INCLINATION    = 42.9983
RA_OF_ASC_NODE = 239.7598
ARG_OF_PERICENTER = 269.8859
MEAN_ANOMALY   = 90.1771

EPHEMERIS_TYPE = 0
CLASSIFICATION_TYPE = U
NORAD_CAT_ID   = 67627
ELEMENT_SET_NO = 999
REV_AT_EPOCH   = 354
BSTAR          = -.53382891E-2
MEAN_MOTION_DOT = -.956059E-2
MEAN_MOTION_DDOT = 0

CCSDS_OMM_VERS = 2.0
CREATION_DATE  = 
ORIGINATOR     = 

OBJECT_NAME    = STARLINK-36532
OBJECT_ID      = 2026-020M
CENTER_NAME    = EARTH
REF_FRAME      = TEME
TIME_SYSTEM    = UTC
MEAN_ELEMENT_THEORY = SGP/SGP4

EPOCH          = 2026-02-21T00:00:02.000160
MEAN_MOTION    = 15.82335971
ECCENTRICITY   = .00017538
INCLINATION    = 42.9990
RA_OF_ASC_NODE = 243.0484
ARG_OF_PERICENTER = 255.9501
MEAN_ANOMALY   = 269.5962

EPHEMERIS_TYPE = 0
CLASSIFICATION_TYPE = U
NORAD_CAT_ID   = 67628
ELEMENT_SET_NO = 999
REV_AT_EPOCH   = 470
BSTAR          = -.56006967E-2
MEAN_MOTION_DOT = -.1059876E-1
MEAN_MOTION_DDOT = 0

CCSDS_OMM_VERS = 2.0
CREATION_DATE  = 
ORIGINATOR     = 

OBJECT_NAME    = STARLINK-36367
OBJECT_ID      = 2026-020N
CENTER_NAME    = EARTH
REF_FRAME      = TEME
TIME_SYSTEM    = UTC
MEAN_ELEMENT_THEORY = SGP/SGP4

EPOCH          = 2026-02-21T13:29:14.652960
MEAN_MOTION    = 15.76645476
ECCENTRICITY   = .00026546
INCLINATION    = 42.9981
RA_OF_ASC_NODE = 239.9262
ARG_OF_PERICENTER = 262.3537
MEAN_ANOMALY   = 97.7031

EPHEMERIS_TYPE = 0
CLASSIFICATION_TYPE = U
NORAD_CAT_ID   = 67629
ELEMENT_SET_NO = 999
REV_AT_EPOCH   = 354
BSTAR          = .16430651E-2
MEAN_MOTION_DOT = .279525E-2
MEAN_MOTION_DDOT = 0

CCSDS_OMM_VERS = 2.0
CREATION_DATE  = 
ORIGINATOR     = 

OBJECT_NAME    = STARLINK-36416
OBJECT_ID      = 2026-020P
CENTER_NAME    = EARTH
REF_FRAME      = TEME
TIME_SYSTEM    = UTC
MEAN_ELEMENT_THEORY = SGP/SGP4

EPOCH          = 2026-02-20T22:38:56.512032
MEAN_MOTION    = 15.76402842
ECCENTRICITY   = .0001881
INCLINATION    = 42.9979
RA_OF_ASC_NODE = 243.9029
ARG_OF_PERICENTER = 266.3830
MEAN_ANOMALY   = 93.6824

EPHEMERIS_TYPE = 0
CLASSIFICATION_TYPE = U
NORAD_CAT_ID   = 67630
ELEMENT_SET_NO = 999
REV_AT_EPOCH   = 344
BSTAR          = .18603E-2
MEAN_MOTION_DOT = .314457E-2
MEAN_MOTION_DDOT = 0

